NORAD_CAT_ID,OBJECT_NAME,OBJECT_TYPE,EPOCH,MEAN_MOTION,ECCENTRICITY,INCLINATION,RA_OF_ASC_NODE,ARG_OF_PERICENTER,MEAN_ANOMALY,BSTAR,MEAN_MOTION_DOT,MEAN_MOTION_DDOT,TLE_LINE0,TLE_LINE1,TLE_LINE2,SEMIMAJOR_AXIS,PERIOD,APOGEE,PERIGEE,DECAYED
53805.0,STARLINK-4763,PAYLOAD,2022-12-20 02:00:01,15.68611254,8.56e-05,53.2173,132.1138,91.1692,215.6835,-0.010853,-0.01138885,0.0,0 STARLINK-4763,1 53805U 22111AJ  22354.08335648 -.01138885  00000-0 -10853-1 0  9995,2 53805  53.2173 132.1138 0000856  91.1692 215.6835 15.68611254 15667,6741.01,91.801,363.452,362.298,0.0
53805.0,STARLINK-4763,PAYLOAD,2022-12-20 14:00:01,15.67388857,0.0001213,53.2167,129.6597,66.5816,184.2115,-0.011371,-0.01135132,0.0,0 STARLINK-4763,1 53805U 22111AJ  22354.58334491 -.01135132  00000-0 -11371-1 0  9993,2 53805  53.2167 129.6597 0001213  66.5816 184.2115 15.67388857  1309,6744.514,91.873,367.197,365.561,0.0
53805.0,STARLINK-4763,PAYLOAD,2022-12-21 00:00:00,15.66373543,0.0001408,53.2169,127.6167,42.7914,39.6594,-0.011883,-0.01137883,0.0,0 STARLINK-4763,1 53805U 22111AJ  22355.00001157 -.01137883  00000-0 -11883-1 0  9994,2 53805  53.2169 127.6167 0001408  42.7914  39.6594 15.66373543 15802,6747.428000000001,91.932,370.24300000000005,368.343,0.0
53805.0,STARLINK-4763,PAYLOAD,2022-12-21 14:00:01,15.64947643,0.0001349,53.2174,124.7621,56.7255,75.4806,-0.012548,-0.01134622,0.0,0 STARLINK-4763,1 53805U 22111AJ  22355.58334491 -.01134622  00000-0 -12548-1 0  9994,2 53805  53.2174 124.7621 0001349  56.7255  75.4806 15.64947643  1308,6751.526,92.016,374.302,372.481,0.0
53805.0,STARLINK-4763,PAYLOAD,2022-12-21 22:00:00,15.64143126,0.0001584,53.2164,123.1347,42.6368,168.0795,-0.013119,-0.01147436,0.0,0 STARLINK-4763,1 53805U 22111AJ  22355.91667824 -.01147436  00000-0 -13119-1 0  9992,2 53805  53.2164 123.1347 0001584  42.6368 168.0795 15.64143126 15951,6753.840999999999,92.063,376.776,374.636,0.0
53805.0,STARLINK-4763,PAYLOAD,2022-12-22 14:00:01,15.62508299,0.0001401,53.2173,119.8827,40.0528,324.7642,-0.013852,-0.0113663,0.0,0 STARLINK-4763,1 53805U 22111AJ  22356.58334491 -.01136630  00000-0 -13852-1 0  9995,2 53805  53.2173 119.8827 0001401  40.0528 324.7642 15.62508299  1304,6758.551,92.16,381.36300000000006,379.47,0.0
53805.0,STARLINK-4763,PAYLOAD,2022-12-23 00:00:00,15.61491258,0.0001543,53.2173,117.8543,45.8676,143.274,-0.014416,-0.01136752,0.0,0 STARLINK-4763,1 53805U 22111AJ  22357.00001157 -.01136752  00000-0 -14416-1 0  9995,2 53805  53.2173 117.8543 0001543  45.8676 143.2740 15.61491258  1309,6761.486,92.22,384.394,382.307,0.0
53805.0,STARLINK-4763,PAYLOAD,2022-12-23 02:00:01,15.61288568,0.0001195,53.2174,117.4487,56.5134,241.3096,-0.014547,-0.01137813,0.0,0 STARLINK-4763,1 53805U 22111AJ  22357.08334491 -.01137813  00000-0 -14547-1 0  9997,2 53805  53.2174 117.4487 0001195  56.5134 241.3096 15.61288568 16133,6762.071,92.232,384.744,383.128,0.0
53805.0,STARLINK-4763,PAYLOAD,2022-12-23 14:00:01,15.60072808,0.0001464,53.2168,115.0217,54.9592,173.6656,-0.015326,-0.01143121,0.0,0 STARLINK-4763,1 53805U 22111AJ  22357.58334491 -.01143121  00000-0 -15326-1 0  9997,2 53805  53.2168 115.0217 0001464  54.9592 173.6656 15.60072808  1309,6765.584,92.303,388.439,386.458,0.0
53805.0,STARLINK-4763,PAYLOAD,2022-12-23 22:00:01,15.59264874,0.0001462,53.2165,113.4052,41.2607,260.0744,-0.0159349999999999,-0.01151327,0.0,0 STARLINK-4763,1 53805U 22111AJ  22357.91668981 -.01151327  00000-0 -15935-1 0  9991,2 53805  53.2165 113.4052 0001462  41.2607 260.0744 15.59264874  1302,6767.92,92.351,390.775,388.796,0.0
53805.0,STARLINK-4763,PAYLOAD,2022-12-24 04:00:00,15.58639732,0.0001382,53.2175,112.1917,47.6018,217.5208,-0.015982,-0.0112969,0.0,0 STARLINK-4763,1 53805U 22111AJ  22358.16667824 -.01129690  00000-0 -15982-1 0  9994,2 53805  53.2175 112.1917 0001382  47.6018 217.5208 15.58639732 16302,6769.73,92.388,392.531,390.659,0.0
53805.0,STARLINK-4763,PAYLOAD,2022-12-24 14:00:01,15.57631403,0.000162,53.2172,110.1779,42.4234,41.212,-0.016811,-0.01142399,0.0,0 STARLINK-4763,1 53805U 22111AJ  22358.58334491 -.01142399  00000-0 -16811-1 0  9994,2 53805  53.2172 110.1779 0001620  42.4234  41.2120 15.57631403  1306,6772.651,92.448,395.61300000000006,393.419,0.0
53805.0,STARLINK-4763,PAYLOAD,2022-12-24 22:00:00,15.56823741,0.000171,53.2166,108.5669,35.5101,117.8374,-0.01747,-0.01150722,0.0,0 STARLINK-4763,1 53805U 22111AJ  22358.91667824 -.01150722  00000-0 -17470-1 0  9991,2 53805  53.2166 108.5669 0001710  35.5101 117.8374 15.56823741 16421,6774.993,92.496,398.017,395.7,0.0
53805.0,STARLINK-4763,PAYLOAD,2022-12-25 14:00:01,15.55200287,0.0001567,53.217,105.3518,42.67100000000001,247.1696,-0.018656,-0.01155933,0.0,0 STARLINK-4763,1 53805U 22111AJ  22359.58334491 -.01155933  00000-0 -18656-1 0  9992,2 53805  53.2170 105.3518 0001567  42.6710 247.1696 15.55200287  1307,6779.706999999999,92.593,402.635,400.51,0.0
53805.0,STARLINK-4763,PAYLOAD,2022-12-25 22:00:00,15.54377222,0.0001652,53.2165,103.7467,31.5791,325.0468,-0.018987,-0.01142619,0.0,0 STARLINK-4763,1 53805U 22111AJ  22359.91667824 -.01142619  00000-0 -18987-1 0  9992,2 53805  53.2165 103.7467 0001652  31.5791 325.0468 15.54377222 16578,6782.101,92.642,405.086,402.845,0.0
53805.0,STARLINK-4763,PAYLOAD,2022-12-26 00:00:00,15.54164952,0.0001771999999999,53.2172,103.3447,34.4946,68.6785,-0.018903,-0.01130075,0.0,0 STARLINK-4763,1 53805U 22111AJ  22360.00001157 -.01130075  00000-0 -18903-1 0  9996,2 53805  53.2172 103.3447 0001772  34.4946  68.6785 15.54164952  1308,6782.718000000003,92.654,405.785,403.381,0.0
53805.0,STARLINK-4763,PAYLOAD,2022-12-26 14:00:01,15.52748446,0.0001748,53.2169,100.5433,40.3201,86.9341,-0.020102,-0.01139946,0.0,0 STARLINK-4763,1 53805U 22111AJ  22360.58334491 -.01139946  00000-0 -20102-1 0  9999,2 53805  53.2169 100.5433 0001748  40.3201  86.9341 15.52748446  1306,6786.843000000003,92.739,409.894,407.521,0.0
53805.0,STARLINK-4763,PAYLOAD,2022-12-27 00:00:00,15.51725592,0.0001578,53.2174,98.5432,37.7416,259.1732,-0.020717,-0.01132732,0.0,0 STARLINK-4763,1 53805U 22111AJ  22361.00001157 -.01132732  00000-0 -20717-1 0  9995,2 53805  53.2174  98.5432 0001578  37.7416 259.1732 15.51725592 16744,6789.825,92.8,412.761,410.61800000000005,0.0
53805.0,STARLINK-4763,PAYLOAD,2022-12-27 08:00:01,15.50820625,0.0005178,53.2174,96.9465,272.252,87.3709,-0.016876,-0.00900515,0.0,0 STARLINK-4763,1 53805U 22111AJ  22361.33335648 -.00900515  00000-0 -16876-1 0  9998,2 53805  53.2174  96.9465 0005178 272.2520  87.3709 15.50820625 16796,6792.465999999999,92.854,417.848,410.814,0.0
53805.0,STARLINK-4763,PAYLOAD,2022-12-27 14:00:01,15.50217511,0.0001519,53.2172,95.7523,48.644,267.2251,-0.0082724999999999,-0.00449299,0.0,0 STARLINK-4763,1 53805U 22111AJ  22361.58334491 -.00449299  00000-0 -82725-2 0  9994,2 53805  53.2172  95.7523 0001519  48.6440 267.2251 15.50217511  1303,6794.227,92.89,417.125,415.06,0.0
53805.0,STARLINK-4763,PAYLOAD,2022-12-27 16:00:01,15.50054853,0.0001445,53.2176,95.3536,47.6305,13.6407,-0.0046057,-0.00255056,0.0,0 STARLINK-4763,1 53805U 22111AJ  22361.66668981 -.00255056  00000-0 -46057-2 0  9991,2 53805  53.2176  95.3536 0001445  47.6305  13.6407 15.50054853 16843,6794.703,92.9,417.55,415.586,0.0
53805.0,STARLINK-4763,PAYLOAD,2022-12-27 22:00:00,15.50005724,0.0001654,53.2134,94.163,40.0028,336.9306,-0.0020674,-0.00116559,0.0,0 STARLINK-4763,1 53805U 22111AJ  22361.91667824 -.00116559  00000-0 -20674-2 0  9995,2 53805  53.2134  94.1630 0001654  40.0028 336.9306 15.50005724  1307,6794.846,92.903,417.835,415.587,0.0
53805.0,STARLINK-4763,PAYLOAD,2022-12-28 02:00:01,15.49935852,0.0001561999999999,53.2142,93.3647,43.8388,183.6191,-0.00039571,-0.00022886,0.0,0 STARLINK-4763,1 53805U 22111AJ  22362.08334491 -.00022886  00000-0 -39571-3 0  9991,2 53805  53.2142  93.3647 0001562  43.8388 183.6191 15.49935852 16917,6795.051,92.907,417.977,415.854,0.0
53805.0,STARLINK-4763,PAYLOAD,2022-12-28 14:00:01,15.49791695,0.0001636999999999,53.2166,90.9738,48.8612,90.0715,-0.012346,-0.00644196,0.0,0 STARLINK-4763,1 53805U 22111AJ  22362.58334491 -.00644196  00000-0 -12346-1 0  9999,2 53805  53.2166  90.9738 0001637  48.8612  90.0715 15.49791695  1300,6795.472,92.916,418.449,416.224,0.0
53805.0,STARLINK-4763,PAYLOAD,2022-12-28 16:00:00,15.49683814,0.0001464,53.2168,90.5753,52.5381,191.5826,-0.0134159999999999,-0.0069295,0.0,0 STARLINK-4763,1 53805U 22111AJ  22362.66667824 -.00692950  00000-0 -13416-1 0  9997,2 53805  53.2168  90.5753 0001464  52.5381 191.5826 15.49683814 17005,6795.7869999999975,92.922,418.647,416.657,0.0
53805.0,STARLINK-4763,PAYLOAD,2022-12-28 22:00:00,15.49209744,0.0001743,53.2166,89.3789,45.415,154.1356,-0.017199,-0.00868481,0.0,0 STARLINK-4763,1 53805U 22111AJ  22362.91667824 -.00868481  00000-0 -17199-1 0  9991,2 53805  53.2166  89.3789 0001743  45.4150 154.1356 15.49209744  1308,6797.174,92.951,420.223,417.854,0.0
53805.0,STARLINK-4763,PAYLOAD,2022-12-29 00:00:00,15.49185882,0.000156,53.2176,88.9801,40.3198,264.1901,-0.022458,-0.01122304,0.0,0 STARLINK-4763,1 53805U 22111AJ  22363.00001157 -.01122304  00000-0 -22458-1 0  9995,2 53805  53.2176  88.9801 0001560  40.3198 264.1901 15.49185882 17055,6797.243,92.952,420.169,418.048,0.0
53805.0,STARLINK-4763,PAYLOAD,2022-12-29 14:00:01,15.47773863,0.0001436,53.2169,86.2002,50.9975,267.129,-0.024031,-0.01157579,0.0,0 STARLINK-4763,1 53805U 22111AJ  22363.58334491 -.01157579  00000-0 -24031-1 0  9999,2 53805  53.2169  86.2002 0001436  50.9975 267.1290 15.47773863  1308,6801.377,93.037,424.218,422.265,0.0
53805.0,STARLINK-4763,PAYLOAD,2022-12-30 00:00:00,15.46744817,0.0001743,53.2172,84.2149,37.5089,82.8066,-0.024496,-0.01140003,0.0,0 STARLINK-4763,1 53805U 22111AJ  22364.00001157 -.01140003  00000-0 -24496-1 0  9996,2 53805  53.2172  84.2149 0001743  37.5089  82.8066 15.46744817 17205,6804.393,93.099,427.444,425.072,0.0
